GOES 1 (SMS-C) [-]      
1 08366U 75100A   20134.49781306 -.00000220  00000-0  00000+0 0  9998
2 08366  10.0344 305.4423 0002410   8.9570   9.9189  1.00243228162898
GOES 2 [-]              
1 10061U 77048A   20133.86956682 -.00000281  00000-0  00000-0 0  9995
2 10061  11.4813 315.5256 0015639   5.4176 176.7570  0.99399182 24146
GOES 3 [-]              
1 10953U 78062A   20133.50311031 -.00000116  00000-0  00000+0 0  9992
2 10953  11.7334 319.5262 0003986  50.4614 317.8927  0.99358647106479
GOES 4 [-]              
1 11964U 80074A   20134.30592080 -.00000256  00000-0  00000+0 0  9990
2 11964  12.6177 323.2751 0036129  47.3106 313.2140  0.99233477105545
GOES 5 [-]              
1 12472U 81049A   20133.50598910 -.00000294  00000-0  00000+0 0  9999
2 12472  13.1697 333.9877 0003183  15.3424 354.0395  1.00248099100631
GOES 6 [-]              
1 14050U 83041A   20133.50424436 -.00000263  00000-0  00000-0 0  9995
2 14050  13.5811 339.0630 0003729  58.9853 295.5136  1.00246775193684
GOES 7 [-]              
1 17561U 87022A   20133.77409088  .00000036  00000-0  00000+0 0  9999
2 17561  14.8081 355.2666 0008351  15.3939 333.2071  0.99904691104735
GOES 8 [-]              
1 23051U 94022A   20133.53073714 -.00000236  00000-0  00000-0 0  9999
2 23051  12.5090  29.8422 0008350 340.9430 223.5543  0.98907978102101
GOES 9 [-]              
1 23581U 95025A   20133.95165580 -.00000185  00000-0  00000+0 0  9992
2 23581  11.9976  29.7961 0006484  37.5854 151.8909  0.98802089 90761
GOES 10 [-]             
1 24786U 97019A   20133.61405447  .00000046  00000-0  00000+0 0  9992
2 24786  10.5634  35.4315 0023787 187.8907  95.4462  0.99122432 83997
GOES 11 [-]             
1 26352U 00022A   20133.72637285 -.00000238  00000-0  00000-0 0  9995
2 26352   7.0947  65.2040 0002304 280.7634 102.1849  0.99043947 30422
GOES 12 [-]             
1 26871U 01031A   20133.39771895 -.00000266  00000-0  00000-0 0  9992
2 26871   8.1753  52.9947 0007997 291.0486 358.2923  0.99140118 68681
GOES 13 [B]             
1 29155U 06018A   20133.80118760  .00000027  00000-0  00000-0 0  9996
2 29155   0.2235 267.7567 0004496 285.1109  27.7446  1.00273422 51181
GOES 14 [S]             
1 35491U 09033A   20134.07343712 -.00000106  00000-0  00000+0 0  9991
2 35491   0.2389  98.1837 0007917 121.9760 293.3797  1.00271485 39833
GOES 15 [+]             
1 36411U 10008A   20134.13403330  .00000043  00000-0  00000+0 0  9997
2 36411   0.1982 274.4050 0002669 155.4391  81.4444  1.00272089 37341
GOES 16 [+]             
1 41866U 16071A   20134.38591144 -.00000260  00000-0  00000+0 0  9993
2 41866   0.0173 263.3400 0001452 192.1641 199.8285  1.00271874 12782
GOES-S [+]              
1 43226U 18022A   20133.70770434  .00000085  00000-0  00000-0 0  9994
2 43226   0.0156 263.9464 0000750 182.3680 262.1841  1.00272219  8089
